{
    "links": {
        "self": "http://www.neowsapp.com/rest/v1/neo/3409706?api_key=iIulBulltgU6a56xZRHN4H3l9WmuAYTsLGpBGhQ2"
    },
    "id": "3409706",
    "neo_reference_id": "3409706",
    "name": "(2008 HT4)",
    "designation": "2008 HT4",
    "nasa_jpl_url": "http://ssd.jpl.nasa.gov/sbdb.cgi?sstr=3409706",
    "absolute_magnitude_h": 23.2,
    "estimated_diameter": {
        "kilometers": {
            "estimated_diameter_min": 0.0608912622,
            "estimated_diameter_max": 0.1361570015
        },
        "meters": {
            "estimated_diameter_min": 60.8912622106,
            "estimated_diameter_max": 136.1570015386
        },
        "miles": {
            "estimated_diameter_min": 0.0378360645,
            "estimated_diameter_max": 0.0846040122
        },
        "feet": {
            "estimated_diameter_min": 199.7744887109,
            "estimated_diameter_max": 446.7093369279
        }
    },
    "is_potentially_hazardous_asteroid": false,
    "close_approach_data": [
        {
            "close_approach_date": "2008-04-18",
            "close_approach_date_full": "2008-Apr-18 07:57",
            "epoch_date_close_approach": 1208505420000,
            "relative_velocity": {
                "kilometers_per_second": "9.4303895647",
                "kilometers_per_hour": "33949.4024329325",
                "miles_per_hour": "21094.8384172852"
            },
            "miss_distance": {
                "astronomical": "0.131764399",
                "lunar": "51.256351211",
                "kilometers": "19711673.43223013",
                "miles": "12248265.911150594"
            },
            "orbiting_body": "Earth"
        }
    ],
    "orbital_data": {
        "orbit_id": "8",
        "orbit_determination_date": "2017-04-06 09:03:35",
        "first_observation_date": "2008-04-30",
        "last_observation_date": "2008-05-05",
        "data_arc_in_days": 5,
        "observations_used": 21,
        "orbit_uncertainty": "9",
        "minimum_orbit_intersection": ".12779",
        "jupiter_tisserand_invariant": "4.651",
        "epoch_osculation": "2454588.5",
        "eccentricity": ".2294443014917608",
        "semi_major_axis": "1.414170594118894",
        "inclination": "16.69886711370561",
        "ascending_node_longitude": "36.11964909155779",
        "orbital_period": "614.2584371816023",
        "perihelion_distance": "1.089697209961096",
        "perihelion_argument": "138.4173863515319",
        "aphelion_distance": "1.738643978276692",
        "perihelion_time": "2454541.001719477048",
        "mean_anomaly": "27.83743771875514",
        "mean_motion": ".5860725359374558",
        "equinox": "J2000",
        "orbit_class": {
            "orbit_class_type": "AMO",
            "orbit_class_description": "Near-Earth asteroid orbits similar to that of 1221 Amor",
            "orbit_class_range": "1.017 AU < q (perihelion) < 1.3 AU"
        }
    },
    "is_sentry_object": false
}